IRIDIUM 119             
1 42959U 17061E   25085.63142118  .00000116  00000+0  34504-4 0  9997
2 42959  86.4015 212.2303 0002180  89.2260 270.9185 14.34213560390661
IRIDIUM 107             
1 42960U 17061F   25085.58067260  .00000955  00000+0  33394-3 0  9993
2 42960  86.4015 212.2703 0001826  80.9463 279.1940 14.34223391390669
IRIDIUM 132             
1 42961U 17061G   25085.58701080  .00001379  00000+0  48543-3 0  9992
2 42961  86.4015 212.2502 0002002  91.5563 268.5863 14.34212865390663
IRIDIUM 136             
1 42962U 17061H   25085.61873689  .00000356  00000+0  12006-3 0  9991
2 42962  86.4018 212.2416 0002180  86.1523 273.9922 14.34215709390682
IRIDIUM 139             
1 42963U 17061J   25085.62507670  .00000014  00000+0 -19289-5 0  9991
2 42963  86.4020 212.2937 0001895  90.8435 269.2978 14.34215130390698
IRIDIUM 125             
1 42964U 17061K   25085.61239529 -.00000081  00000+0 -36123-4 0  9996
2 42964  86.4016 212.3518 0002353  81.1703 278.9759 14.34215857390703
IRIDIUM 135             
1 43070U 17083A   25085.58651941  .00000712  00000+0  24731-3 0  9991
2 43070  86.4002 149.1403 0002341 100.8243 259.3217 14.34218056379996
IRIDIUM 138             
1 43071U 17083B   25085.61189259  .00000119  00000+0  35457-4 0  9993
2 43071  86.3990 148.8116 0002875  89.9998 270.1527 14.34215801379984
